[
  {
    "COMMENT": "GENERATED VIA SPACETRACK.ORG API",
    "ORIGINATOR": "18 SPCS",
    "NORAD_CAT_ID": "46469",
    "OBJECT_NAME": "HAIYANG 2C",
    "OBJECT_TYPE": "PAYLOAD",
    "CLASSIFICATION_TYPE": "U",
    "INTLDES": "20066A",
    "EPOCH": "2023-08-22 11:18:47",
    "EPOCH_MICROSECONDS": "366784",
    "MEAN_MOTION": "13.83374749",
    "ECCENTRICITY": "0.0012313",
    "INCLINATION": "65.9943",
    "RA_OF_ASC_NODE": "259.0499",
    "ARG_OF_PERICENTER": "291.0567",
    "MEAN_ANOMALY": "68.9184",
    "EPHEMERIS_TYPE": "0",
    "ELEMENT_SET_NO": "999",
    "REV_AT_EPOCH": "14734",
    "BSTAR": "0.000061248",
    "MEAN_MOTION_DOT": "-0.00000014",
    "MEAN_MOTION_DDOT": "0",
    "FILE": "3986948",
    "TLE_LINE0": "0 HAIYANG 2C",
    "TLE_LINE1": "1 46469U 20066A   23234.47138156 -.00000014  00000-0  61248-4 0  9993",
    "TLE_LINE2": "2 46469  65.9943 259.0499 0012313 291.0567  68.9184 13.83374749147349",
    "OBJECT_ID": "2020-066A",
    "OBJECT_NUMBER": "46469",
    "SEMIMAJOR_AXIS": "7330.078",
    "PERIOD": "104.093",
    "APOGEE": "960.969",
    "PERIGEE": "942.918",
    "DECAYED": "0"
  },
  {
    "COMMENT": "GENERATED VIA SPACETRACK.ORG API",
    "ORIGINATOR": "18 SPCS",
    "NORAD_CAT_ID": "46469",
    "OBJECT_NAME": "HAIYANG 2C",
    "OBJECT_TYPE": "PAYLOAD",
    "CLASSIFICATION_TYPE": "U",
    "INTLDES": "20066A",
    "EPOCH": "2023-08-22 18:15:12",
    "EPOCH_MICROSECONDS": "419424",
    "MEAN_MOTION": "13.83374783",
    "ECCENTRICITY": "0.0012326",
    "INCLINATION": "65.9942",
    "RA_OF_ASC_NODE": "258.3299",
    "ARG_OF_PERICENTER": "291.0283",
    "MEAN_ANOMALY": "68.9466",
    "EPHEMERIS_TYPE": "0",
    "ELEMENT_SET_NO": "999",
    "REV_AT_EPOCH": "14738",
    "BSTAR": "0.000060867",
    "MEAN_MOTION_DOT": "-0.00000014",
    "MEAN_MOTION_DDOT": "0",
    "FILE": "3987228",
    "TLE_LINE0": "0 HAIYANG 2C",
    "TLE_LINE1": "1 46469U 20066A   23234.76056041 -.00000014  00000-0  60867-4 0  9993",
    "TLE_LINE2": "2 46469  65.9942 258.3299 0012326 291.0283  68.9466 13.83374783147382",
    "OBJECT_ID": "2020-066A",
    "OBJECT_NUMBER": "46469",
    "SEMIMAJOR_AXIS": "7330.078",
    "PERIOD": "104.093",
    "APOGEE": "960.978",
    "PERIGEE": "942.908",
    "DECAYED": "0"
  },
  {
    "COMMENT": "GENERATED VIA SPACETRACK.ORG API",
    "ORIGINATOR": "18 SPCS",
    "NORAD_CAT_ID": "46469",
    "OBJECT_NAME": "HAIYANG 2C",
    "OBJECT_TYPE": "PAYLOAD",
    "CLASSIFICATION_TYPE": "U",
    "INTLDES": "20066A",
    "EPOCH": "2023-08-23 02:55:43",
    "EPOCH_MICROSECONDS": "735008",
    "MEAN_MOTION": "13.83374802",
    "ECCENTRICITY": "0.0012336",
    "INCLINATION": "65.9942",
    "RA_OF_ASC_NODE": "257.4298",
    "ARG_OF_PERICENTER": "290.9575",
    "MEAN_ANOMALY": "69.0173",
    "EPHEMERIS_TYPE": "0",
    "ELEMENT_SET_NO": "999",
    "REV_AT_EPOCH": "14743",
    "BSTAR": "0.000053692",
    "MEAN_MOTION_DOT": "-0.00000022",
    "MEAN_MOTION_DDOT": "0",
    "FILE": "3987497",
    "TLE_LINE0": "0 HAIYANG 2C",
    "TLE_LINE1": "1 46469U 20066A   23235.12203397 -.00000022  00000-0  53692-4 0  9999",
    "TLE_LINE2": "2 46469  65.9942 257.4298 0012336 290.9575  69.0173 13.83374802147439",
    "OBJECT_ID": "2020-066A",
    "OBJECT_NUMBER": "46469",
    "SEMIMAJOR_AXIS": "7330.078",
    "PERIOD": "104.093",
    "APOGEE": "960.985",
    "PERIGEE": "942.901",
    "DECAYED": "0"
  },
  {
    "COMMENT": "GENERATED VIA SPACETRACK.ORG API",
    "ORIGINATOR": "18 SPCS",
    "NORAD_CAT_ID": "46469",
    "OBJECT_NAME": "HAIYANG 2C",
    "OBJECT_TYPE": "PAYLOAD",
    "CLASSIFICATION_TYPE": "U",
    "INTLDES": "20066A",
    "EPOCH": "2023-08-23 11:36:15",
    "EPOCH_MICROSECONDS": "51456",
    "MEAN_MOTION": "13.83374849",
    "ECCENTRICITY": "0.0012351",
    "INCLINATION": "65.9942",
    "RA_OF_ASC_NODE": "256.5298",
    "ARG_OF_PERICENTER": "290.9227",
    "MEAN_ANOMALY": "69.0518",
    "EPHEMERIS_TYPE": "0",
    "ELEMENT_SET_NO": "999",
    "REV_AT_EPOCH": "14748",
    "BSTAR": "0.00005999",
    "MEAN_MOTION_DOT": "-0.00000015",
    "MEAN_MOTION_DDOT": "0",
    "FILE": "3987717",
    "TLE_LINE0": "0 HAIYANG 2C",
    "TLE_LINE1": "1 46469U 20066A   23235.48350754 -.00000015  00000-0  59990-4 0  9997",
    "TLE_LINE2": "2 46469  65.9942 256.5298 0012351 290.9227  69.0518 13.83374849147489",
    "OBJECT_ID": "2020-066A",
    "OBJECT_NUMBER": "46469",
    "SEMIMAJOR_AXIS": "7330.078",
    "PERIOD": "104.093",
    "APOGEE": "960.996",
    "PERIGEE": "942.890",
    "DECAYED": "0"
  },
  {
    "COMMENT": "GENERATED VIA SPACETRACK.ORG API",
    "ORIGINATOR": "18 SPCS",
    "NORAD_CAT_ID": "46469",
    "OBJECT_NAME": "HAIYANG 2C",
    "OBJECT_TYPE": "PAYLOAD",
    "CLASSIFICATION_TYPE": "U",
    "INTLDES": "20066A",
    "EPOCH": "2023-08-24 18:50:07",
    "EPOCH_MICROSECONDS": "773216",
    "MEAN_MOTION": "13.83374986",
    "ECCENTRICITY": "0.0012395",
    "INCLINATION": "65.9941",
    "RA_OF_ASC_NODE": "253.2896",
    "ARG_OF_PERICENTER": "290.7028",
    "MEAN_ANOMALY": "69.2711",
    "EPHEMERIS_TYPE": "0",
    "ELEMENT_SET_NO": "999",
    "REV_AT_EPOCH": "14766",
    "BSTAR": "0.000056147",
    "MEAN_MOTION_DOT": "-0.00000019",
    "MEAN_MOTION_DDOT": "0",
    "FILE": "3988078",
    "TLE_LINE0": "0 HAIYANG 2C",
    "TLE_LINE1": "1 46469U 20066A   23236.78481219 -.00000019  00000-0  56147-4 0  9997",
    "TLE_LINE2": "2 46469  65.9941 253.2896 0012395 290.7028  69.2711 13.83374986147660",
    "OBJECT_ID": "2020-066A",
    "OBJECT_NUMBER": "46469",
    "SEMIMAJOR_AXIS": "7330.077",
    "PERIOD": "104.093",
    "APOGEE": "961.028",
    "PERIGEE": "942.857",
    "DECAYED": "0"
  },
  {
    "COMMENT": "GENERATED VIA SPACETRACK.ORG API",
    "ORIGINATOR": "18 SPCS",
    "NORAD_CAT_ID": "46469",
    "OBJECT_NAME": "HAIYANG 2C",
    "OBJECT_TYPE": "PAYLOAD",
    "CLASSIFICATION_TYPE": "U",
    "INTLDES": "20066A",
    "EPOCH": "2023-08-24 22:18:20",
    "EPOCH_MICROSECONDS": "298240",
    "MEAN_MOTION": "13.83375002",
    "ECCENTRICITY": "0.0012399",
    "INCLINATION": "65.9941",
    "RA_OF_ASC_NODE": "252.9296",
    "ARG_OF_PERICENTER": "290.6639",
    "MEAN_ANOMALY": "69.3099",
    "EPHEMERIS_TYPE": "0",
    "ELEMENT_SET_NO": "999",
    "REV_AT_EPOCH": "14740",
    "BSTAR": "0.000057637",
    "MEAN_MOTION_DOT": "-0.00000018",
    "MEAN_MOTION_DDOT": "0",
    "FILE": "3988199",
    "TLE_LINE0": "0 HAIYANG 2C",
    "TLE_LINE1": "1 46469U 20066A   23236.92940160 -.00000018  00000-0  57637-4 0  9992",
    "TLE_LINE2": "2 46469  65.9941 252.9296 0012399 290.6639  69.3099 13.83375002147403",
    "OBJECT_ID": "2020-066A",
    "OBJECT_NUMBER": "46469",
    "SEMIMAJOR_AXIS": "7330.077",
    "PERIOD": "104.093",
    "APOGEE": "961.031",
    "PERIGEE": "942.854",
    "DECAYED": "0"
  },
  {
    "COMMENT": "GENERATED VIA SPACETRACK.ORG API",
    "ORIGINATOR": "18 SPCS",
    "NORAD_CAT_ID": "46469",
    "OBJECT_NAME": "HAIYANG 2C",
    "OBJECT_TYPE": "PAYLOAD",
    "CLASSIFICATION_TYPE": "U",
    "INTLDES": "20066A",
    "EPOCH": "2023-08-25 01:46:32",
    "EPOCH_MICROSECONDS": "819808",
    "MEAN_MOTION": "13.83375036",
    "ECCENTRICITY": "0.0012401",
    "INCLINATION": "65.994",
    "RA_OF_ASC_NODE": "252.5695",
    "ARG_OF_PERICENTER": "290.6286",
    "MEAN_ANOMALY": "69.3452",
    "EPHEMERIS_TYPE": "0",
    "ELEMENT_SET_NO": "999",
    "REV_AT_EPOCH": "14770",
    "BSTAR": "0.000058945",
    "MEAN_MOTION_DOT": "-0.00000016",
    "MEAN_MOTION_DDOT": "0",
    "FILE": "3988306",
    "TLE_LINE0": "0 HAIYANG 2C",
    "TLE_LINE1": "1 46469U 20066A   23237.07399097 -.00000016  00000-0  58945-4 0  9997",
    "TLE_LINE2": "2 46469  65.9940 252.5695 0012401 290.6286  69.3452 13.83375036147706",
    "OBJECT_ID": "2020-066A",
    "OBJECT_NUMBER": "46469",
    "SEMIMAJOR_AXIS": "7330.077",
    "PERIOD": "104.093",
    "APOGEE": "961.032",
    "PERIGEE": "942.852",
    "DECAYED": "0"
  },
  {
    "COMMENT": "GENERATED VIA SPACETRACK.ORG API",
    "ORIGINATOR": "18 SPCS",
    "NORAD_CAT_ID": "46469",
    "OBJECT_NAME": "HAIYANG 2C",
    "OBJECT_TYPE": "PAYLOAD",
    "CLASSIFICATION_TYPE": "U",
    "INTLDES": "20066A",
    "EPOCH": "2023-08-25 10:27:04",
    "EPOCH_MICROSECONDS": "130208",
    "MEAN_MOTION": "13.83375062",
    "ECCENTRICITY": "0.0012414",
    "INCLINATION": "65.994",
    "RA_OF_ASC_NODE": "251.6694",
    "ARG_OF_PERICENTER": "290.5676",
    "MEAN_ANOMALY": "69.406",
    "EPHEMERIS_TYPE": "0",
    "ELEMENT_SET_NO": "999",
    "REV_AT_EPOCH": "14775",
    "BSTAR": "0.00006095",
    "MEAN_MOTION_DOT": "-0.00000014",
    "MEAN_MOTION_DDOT": "0",
    "FILE": "3988558",
    "TLE_LINE0": "0 HAIYANG 2C",
    "TLE_LINE1": "1 46469U 20066A   23237.43546447 -.00000014  00000-0  60950-4 0  9997",
    "TLE_LINE2": "2 46469  65.9940 251.6694 0012414 290.5676  69.4060 13.83375062147751",
    "OBJECT_ID": "2020-066A",
    "OBJECT_NUMBER": "46469",
    "SEMIMAJOR_AXIS": "7330.077",
    "PERIOD": "104.093",
    "APOGEE": "961.042",
    "PERIGEE": "942.843",
    "DECAYED": "0"
  }
]